{
    "links": {
        "self": "http://www.neowsapp.com/rest/v1/neo/3324625?api_key=iIulBulltgU6a56xZRHN4H3l9WmuAYTsLGpBGhQ2"
    },
    "id": "3324625",
    "neo_reference_id": "3324625",
    "name": "(2006 DO62)",
    "designation": "2006 DO62",
    "nasa_jpl_url": "http://ssd.jpl.nasa.gov/sbdb.cgi?sstr=3324625",
    "absolute_magnitude_h": 28.5,
    "estimated_diameter": {
        "kilometers": {
            "estimated_diameter_min": 0.0053034072,
            "estimated_diameter_max": 0.0118587791
        },
        "meters": {
            "estimated_diameter_min": 5.3034072332,
            "estimated_diameter_max": 11.8587790858
        },
        "miles": {
            "estimated_diameter_min": 0.0032953835,
            "estimated_diameter_max": 0.0073687014
        },
        "feet": {
            "estimated_diameter_min": 17.3996305869,
            "estimated_diameter_max": 38.9067567758
        }
    },
    "is_potentially_hazardous_asteroid": false,
    "close_approach_data": [
        {
            "close_approach_date": "2006-02-25",
            "close_approach_date_full": "2006-Feb-25 16:23",
            "epoch_date_close_approach": 1140884580000,
            "relative_velocity": {
                "kilometers_per_second": "9.4021908731",
                "kilometers_per_hour": "33847.8871431503",
                "miles_per_hour": "21031.7607640314"
            },
            "miss_distance": {
                "astronomical": "0.0053002945",
                "lunar": "2.0618145605",
                "kilometers": "792912.767572715",
                "miles": "492693.147284867"
            },
            "orbiting_body": "Earth"
        },
        {
            "close_approach_date": "2006-02-26",
            "close_approach_date_full": "2006-Feb-26 00:13",
            "epoch_date_close_approach": 1140912780000,
            "relative_velocity": {
                "kilometers_per_second": "9.6392300762",
                "kilometers_per_hour": "34701.2282744514",
                "miles_per_hour": "21561.9937575334"
            },
            "miss_distance": {
                "astronomical": "0.0056511431",
                "lunar": "2.1982946659",
                "kilometers": "845398.970825197",
                "miles": "525306.5616818386"
            },
            "orbiting_body": "Moon"
        }
    ],
    "orbital_data": {
        "orbit_id": "6",
        "orbit_determination_date": "2017-04-06 09:09:02",
        "first_observation_date": "2006-02-24",
        "last_observation_date": "2006-02-24",
        "data_arc_in_days": null,
        "observations_used": 11,
        "orbit_uncertainty": "9",
        "minimum_orbit_intersection": ".00131112",
        "jupiter_tisserand_invariant": "3.786",
        "epoch_osculation": "2453790.5",
        "eccentricity": ".5052249544189742",
        "semi_major_axis": "1.895652490915227",
        "inclination": "1.441027874407944",
        "ascending_node_longitude": "334.903768578456",
        "orbital_period": "953.3151957409511",
        "perihelion_distance": ".9379215475983664",
        "perihelion_argument": "215.6392711880061",
        "aphelion_distance": "2.853383434232087",
        "perihelion_time": "2453818.309330533872",
        "mean_anomaly": "349.4983746856015",
        "mean_motion": ".3776295621934306",
        "equinox": "J2000",
        "orbit_class": {
            "orbit_class_type": "APO",
            "orbit_class_description": "Near-Earth asteroid orbits which cross the Earth’s orbit similar to that of 1862 Apollo",
            "orbit_class_range": "a (semi-major axis) > 1.0 AU; q (perihelion) < 1.017 AU"
        }
    },
    "is_sentry_object": false
}